{
  "type": "FeatureCollection",
  "features": [
    {
      "type": "Feature",
      "properties": {
        "norad_id": 29268,
        "name": "ARIRANG-2 (KOMPSAT-2)",
        "group": "resource",
        "lat": 23.93945184904023,
        "lon": 6.437268391755756,
        "alt_km": 683.5275594464829,
        "timestamp": "2025-12-20T20:38:44.100651+00:00",
        "meta_object_name": "ARIRANG-2 (KOMPSAT-2)",
        "meta_object_id": "2006-031A",
        "meta_epoch": "2025-12-20T13:48:01.780704",
        "meta_mean_motion": 14.64499728,
        "meta_eccentricity": 0.00131797,
        "meta_inclination": 97.8253,
        "meta_ra_of_asc_node": 182.6657,
        "meta_arg_of_pericenter": 282.1064,
        "meta_mean_anomaly": 170.9425,
        "meta_ephemeris_type": 0,
        "meta_classification_type": "U",
        "meta_norad_cat_id": 29268,
        "meta_element_set_no": 999,
        "meta_rev_at_epoch": 3533,
        "meta_bstar": 3.0527632e-05,
        "meta_mean_motion_dot": 1.17e-06,
        "meta_mean_motion_ddot": 0,
        "tle_line1": "1 29268U 06031A   25354.57502061  .00000117  00000+0  30528-4 0  9992",
        "tle_line2": "2 29268  97.8253 182.6657 0013179 282.1064 170.9425 14.64499728 35338"
      },
      "geometry": {
        "type": "Point",
        "coordinates": [
          6.437268391755756,
          23.93945184904023
        ]
      }
    },
    {
      "type": "Feature",
      "properties": {
        "norad_id": 29709,
        "name": "LAPAN-TUBSAT",
        "group": "resource",
        "lat": -11.236929207537173,
        "lon": -13.189873647960647,
        "alt_km": 611.3050063957298,
        "timestamp": "2025-12-20T20:38:44.100661+00:00",
        "meta_object_name": "LAPAN-TUBSAT",
        "meta_object_id": "2007-001A",
        "meta_epoch": "2025-12-20T14:13:51.122784",
        "meta_mean_motion": 14.85680548,
        "meta_eccentricity": 0.0013378,
        "meta_inclination": 98.125,
        "meta_ra_of_asc_node": 344.9109,
        "meta_arg_of_pericenter": 50.9055,
        "meta_mean_anomaly": 309.3347,
        "meta_ephemeris_type": 0,
        "meta_classification_type": "U",
        "meta_norad_cat_id": 29709,
        "meta_element_set_no": 999,
        "meta_rev_at_epoch": 2463,
        "meta_bstar": 6.0453968e-05,
        "meta_mean_motion_dot": 4.67e-06,
        "meta_mean_motion_ddot": 0,
        "tle_line1": "1 29709U 07001A   25354.59295281  .00000467  00000+0  60454-4 0  9994",
        "tle_line2": "2 29709  98.1250 344.9109 0013378  50.9055 309.3347 14.85680548 24633"
      },
      "geometry": {
        "type": "Point",
        "coordinates": [
          -13.189873647960647,
          -11.236929207537173
        ]
      }
    },
    {
      "type": "Feature",
      "properties": {
        "norad_id": 31113,
        "name": "HAIYANG-1B",
        "group": "resource",
        "lat": 74.75953010775856,
        "lon": -53.73730585083834,
        "alt_km": 776.7308095171647,
        "timestamp": "2025-12-20T20:38:44.100671+00:00",
        "meta_object_name": "HAIYANG-1B",
        "meta_object_id": "2007-010A",
        "meta_epoch": "2025-12-20T11:53:46.556736",
        "meta_mean_motion": 14.3096749,
        "meta_eccentricity": 0.0013883,
        "meta_inclination": 98.3321,
        "meta_ra_of_asc_node": 338.4536,
        "meta_arg_of_pericenter": 15.9883,
        "meta_mean_anomaly": 344.1736,
        "meta_ephemeris_type": 0,
        "meta_classification_type": "U",
        "meta_norad_cat_id": 31113,
        "meta_element_set_no": 999,
        "meta_rev_at_epoch": 97507,
        "meta_bstar": 4.2865318e-05,
        "meta_mean_motion_dot": 7.1e-07,
        "meta_mean_motion_ddot": 0,
        "tle_line1": "1 31113U 07010A   25354.49567774  .00000071  00000+0  42865-4 0  9991",
        "tle_line2": "2 31113  98.3321 338.4536 0013883  15.9883 344.1736 14.30967490975075"
      },
      "geometry": {
        "type": "Point",
        "coordinates": [
          -53.73730585083834,
          74.75953010775856
        ]
      }
    },
    {
      "type": "Feature",
      "properties": {
        "norad_id": 31598,
        "name": "COSMO-SKYMED 1",
        "group": "resource",
        "lat": -59.346890090224555,
        "lon": -13.208619923946221,
        "alt_km": 587.9729301816733,
        "timestamp": "2025-12-20T20:38:44.100682+00:00",
        "meta_object_name": "COSMO-SKYMED 1",
        "meta_object_id": "2007-023A",
        "meta_epoch": "2025-12-20T14:45:30.894624",
        "meta_mean_motion": 14.95822457,
        "meta_eccentricity": 0.00015715,
        "meta_inclination": 97.8837,
        "meta_ra_of_asc_node": 180.0659,
        "meta_arg_of_pericenter": 83.236,
        "meta_mean_anomaly": 276.9039,
        "meta_ephemeris_type": 0,
        "meta_classification_type": "U",
        "meta_norad_cat_id": 31598,
        "meta_element_set_no": 999,
        "meta_rev_at_epoch": 308,
        "meta_bstar": 0.00025336875,
        "meta_mean_motion_dot": 2.77e-05,
        "meta_mean_motion_ddot": 0,
        "tle_line1": "1 31598U 07023A   25354.61494091  .00002770  00000+0  25337-3 0  9999",
        "tle_line2": "2 31598  97.8837 180.0659 0001571  83.2360 276.9039 14.95822457  3089"
      },
      "geometry": {
        "type": "Point",
        "coordinates": [
          -13.208619923946221,
          -59.346890090224555
        ]
      }
    },
    {
      "type": "Feature",
      "properties": {
        "norad_id": 31698,
        "name": "TERRASAR-X",
        "group": "resource",
        "lat": -37.26239795876999,
        "lon": 174.41267075756738,
        "alt_km": 515.6057941288009,
        "timestamp": "2025-12-20T20:38:44.100692+00:00",
        "meta_object_name": "TERRASAR-X",
        "meta_object_id": "2007-026A",
        "meta_epoch": "2025-12-20T11:47:12.844032",
        "meta_mean_motion": 15.19153914,
        "meta_eccentricity": 0.00018738,
        "meta_inclination": 97.4453,
        "meta_ra_of_asc_node": 359.7585,
        "meta_arg_of_pericenter": 92.6145,
        "meta_mean_anomaly": 267.5304,
        "meta_ephemeris_type": 0,
        "meta_classification_type": "U",
        "meta_norad_cat_id": 31698,
        "meta_element_set_no": 999,
        "meta_rev_at_epoch": 2609,
        "meta_bstar": 3.1273093e-05,
        "meta_mean_motion_dot": 5.9e-06,
        "meta_mean_motion_ddot": 0,
        "tle_line1": "1 31698U 07026A   25354.49112088  .00000590  00000+0  31273-4 0  9997",
        "tle_line2": "2 31698  97.4453 359.7585 0001873  92.6145 267.5304 15.19153914 26092"
      },
      "geometry": {
        "type": "Point",
        "coordinates": [
          174.41267075756738,
          -37.26239795876999
        ]
      }
    },
    {
      "type": "Feature",
      "properties": {
        "norad_id": 32060,
        "name": "WORLDVIEW-1 (WV-1)",
        "group": "resource",
        "lat": 18.412367078996716,
        "lon": 109.7519546565188,
        "alt_km": 492.18318377665855,
        "timestamp": "2025-12-20T20:38:44.100703+00:00",
        "meta_object_name": "WORLDVIEW-1 (WV-1)",
        "meta_object_id": "2007-041A",
        "meta_epoch": "2025-12-20T14:15:38.310624",
        "meta_mean_motion": 15.23880106,
        "meta_eccentricity": 0.00034978,
        "meta_inclination": 97.3826,
        "meta_ra_of_asc_node": 111.9639,
        "meta_arg_of_pericenter": 10.3591,
        "meta_mean_anomaly": 349.7718,
        "meta_ephemeris_type": 0,
        "meta_classification_type": "U",
        "meta_norad_cat_id": 32060,
        "meta_element_set_no": 999,
        "meta_rev_at_epoch": 1567,
        "meta_bstar": 0.00022574041,
        "meta_mean_motion_dot": 5.378e-05,
        "meta_mean_motion_ddot": 0,
        "tle_line1": "1 32060U 07041A   25354.59419341  .00005378  00000+0  22574-3 0  9993",
        "tle_line2": "2 32060  97.3826 111.9639 0003497  10.3591 349.7718 15.23880106 15672"
      },
      "geometry": {
        "type": "Point",
        "coordinates": [
          109.7519546565188,
          18.412367078996716
        ]
      }
    },
    {
      "type": "Feature",
      "properties": {
        "norad_id": 32289,
        "name": "YAOGAN-3",
        "group": "resource",
        "lat": -79.64912403429906,
        "lon": 70.34678726581117,
        "alt_km": 606.3425997072427,
        "timestamp": "2025-12-20T20:38:44.100713+00:00",
        "meta_object_name": "YAOGAN-3",
        "meta_object_id": "2007-055A",
        "meta_epoch": "2025-12-20T14:34:16.715424",
        "meta_mean_motion": 14.89891174,
        "meta_eccentricity": 0.0001141,
        "meta_inclination": 97.8356,
        "meta_ra_of_asc_node": 21.1614,
        "meta_arg_of_pericenter": 72.1856,
        "meta_mean_anomaly": 287.9486,
        "meta_ephemeris_type": 0,
        "meta_classification_type": "U",
        "meta_norad_cat_id": 32289,
        "meta_element_set_no": 999,
        "meta_rev_at_epoch": 97926,
        "meta_bstar": 0.00013543109,
        "meta_mean_motion_dot": 1.247e-05,
        "meta_mean_motion_ddot": 0,
        "tle_line1": "1 32289U 07055A   25354.60713791  .00001247  00000+0  13543-3 0  9996",
        "tle_line2": "2 32289  97.8356  21.1614 0001141  72.1856 287.9486 14.89891174979264"
      },
      "geometry": {
        "type": "Point",
        "coordinates": [
          70.34678726581117,
          -79.64912403429906
        ]
      }
    }
  ]
}